id,name,brewery_type,street,city,state,postal_code,website_url,phone,longitude,latitude
1,105 West Brewing Co,micro,1043 Park St,Castle Rock,Colorado,80109,http://www.105westbrewing.com,303-325-7321,-104.8667206,39.38269495
2,12Degree Brewing,brewpub,820 Main St,Louisville,Colorado,80027,http://www.12degree.com,303-579-1004,-105.1319826,39.9782443
3,14er Brewing Company,proprietor,2801 Walnut St,Denver,Colorado,80205,http://www.14erBrewing.com,720-773-1437,-104.9839636,39.7614112
4,3 Freaks Brewing Co,micro,7140 E County Line Rd,Highlands Ranch,Colorado,80126,http://www.3freaksbrewery.com,720-299-0994,-104.9426656,39.5659575
5,4B's Brewery,brewpub,215 W Main St,Cedaredge,Colorado,81413,http://www.4bsbrewery.com,970-856-7762,-107.925782,38.900614
6,Alternation Brewing Company,micro,1539 S Broadway,Denver,Colorado,80210,http://www.alternationbrewing.com,303-802-5340,-104.9876117,39.68866374
7,Angry James Brewing Co,micro,421 Adams Ave,Silverthorne,Colorado,80498,http://www.angryjamesbrewing.com,970-455-8800,-106.0764637,39.63306895
8,Animas Brewing Co,brewpub,1560 E 2nd Ave,Durango,Colorado,81301,http://www.animasbrewing.com,970-403-8850,-107.8769912,37.27997215
9,Aspen Brewing Company,micro,404 Aspen Airport Business Ctr,Aspen,Colorado,81611,http://www.aspenbrewingcompany.com,970-920-2739,-106.8597747,39.22153402
10,Atom Brewing Company,micro,654 Moffat St,Erie,Colorado,80516,http://www.atombrewingcompany.com,863-412-0917,-105.0542327,40.0488359
11,Avalanche Brewing Co,brewpub,1067 Blair St,Silverton,Colorado,81433,http://www.avalanchebrewing.com,970-387-5282,-107.664791,37.8098899
12,Banded Oak Brewing Company,brewpub,470 N Broadway,Denver,Colorado,80203,http://Bandedoakbrewing.com,720-479-8033,-104.9874187,39.7282897
13,Barrels & Bottles Brewery,brewpub,600 12th St Ste 160,Golden,Colorado,80401,http://www.barrelsbottles.com,720-328-3643,-105.2202098,39.7562107
14,Beer By Design Brewery,contract,11490 Jackson St,Thornton,Colorado,80233,http://www.beerbydesign.com,303-517-2202,-104.9417886,39.9285623
15,Bierstadt Lagerhaus,brewpub,2875 Blake St,Denver,Colorado,80205,http://www.bierstadtlager.com,720-570-7824,-104.9838084,39.7630094
16,BierWerks,brewpub,121 E. Midland Ave,Woodland Park,Colorado,80863,http://www.bierwerks.com,719-686-8100,-105.0519462,38.9941414
17,Big Choice Brewing Co,micro,21 S 1st Ave,Brighton,Colorado,80601,http://www.bigchoicebrewing.com,303-469-2616,-104.822433,39.98642943
18,BJs Restaurant & Brewery - Boulder,brewpub,1690 28th St,Boulder,Colorado,80301,http://www.bjsrestaurants.com,303-440-5200,-105.258512,40.0291592
19,Black Project Spontaneous & Wild Ales,micro,1290 S Broadway,Denver,Colorado,80210,http://www.blackprojectbeer.com,720-334-2873,-104.9872018,39.6933607
20,Black Shirt Brewing Co,brewpub,3719 Walnut St,Denver,Colorado,80205,http://www.blackshirtbrewingco.com,303-993-2799,-104.9729604,39.7698142
21,Black Sky Brewery,brewpub,490 Santa Fe Dr,Denver,Colorado,80204,http://www.blackskybrewing.com,970-215-4536,-104.9983183,39.7239431
22,Bonfire Brewing,micro,127 W 2nd St,Eagle,Colorado,81631,http://www.bonfirebrewing.com,970-306-7113,-106.82826,39.65531966
23,Bootstrap Brewing Co,micro,6778 N 79th St,Niwot,Colorado,80503,http://www.bootstrapbrewing.com,303-652-4186,-105.1691581,40.09681247
24,Bottom Shelf Brewery,brewpub,118 E Mill St,Bayfield,Colorado,81122,http://www.bottomshelfbrewing.com,970-884-2442,-107.5990683,37.2251348
25,Breckenridge Brewery & Pub,large,600 S Main St,Breckenridge,Colorado,80424,http://www.breckbrewpub.com,970-453-1550,-106.0445665,39.47620392
26,Brew Pub and Kitchen,brewpub,117 W College Dr,Durango,Colorado,81301,http://www.brewpubkitchen.com,970-259-5959,-107.8831549,37.27036464
27,Brewery Rickoli,micro,4335 Wadsworth Blvd,Wheat Ridge,Colorado,80033,http://www.breweryrickoli.com,303-431-6862,-105.0818046,39.7757286
28,Bristol Brewing Co,micro,1604 S Cascade Ave,Colorado Springs,Colorado,80905,http://www.bristolbrewing.com,719-633-2555,-104.827401,38.8108617
29,Brix Taphouse and Brewery,brewpub,813 8th St,Greeley,Colorado,80631,http://www.brixtaphouseandbrewery.com,970-397-6146,-104.6911371,40.42495461
30,BRU Handbuilt Ales and Eats,brewpub,5290 Arapahoe Ave,Boulder,Colorado,80303,http://www.bruboulder.com,720-638-5193,-105.2293345,40.0141462
31,Bull & Bush Brewery,brewpub,4700 E Cherry Creek South Dr,Denver,Colorado,80246,http://www.bullandbush.com,303-759-0333,-104.9488456,39.7116689
32,Burgundian Brewing Co.,micro,4725 Lipan St,Denver,Colorado,80211,http://www.facebook.com/BurgundianBrewing,470-440-0420,-105.0024095,39.7825168
33,Butcherknife Brewing Company,micro,2875 Elk River Rd,Steamboat Springs,Colorado,80487,http://www.butcherknifebrewing.com,970-879-2337,-106.857763,40.510887
34,C.B. and Potts/Big Horn Brewery - Highlands Ranch,brewpub,43 W Centennial Blvd,Highlands Ranch,Colorado,80129,http://www.cbpotts.com,720-344-1200,-104.9887246,39.56211674
35,C.B. and Potts/Big Horn Brewery - Westminster,brewpub,1257 W 120th Ave,Westminster,Colorado,80234,http://www.cbpotts.com,303-451-5767,-105.0040899,39.91376115
36,Call To Arms Brewing Company,micro,4526 Tennyson St,Denver,Colorado,80212,http://www.facebook.com/calltoarmsbrewing,,-105.0435373,39.7788541
37,Carbondale Beer Works,brewpub,647 Main St,Carbondale,Colorado,81623,http://www.carbondalebeerworks.com,,-107.2134909,39.40060712
38,Carver Brewing Co,brewpub,1022 Main Ave,Durango,Colorado,81301,http://carverbrewing.com,970-259-2545,-107.8800415,37.2748415
39,Cerberus Brewing Company,brewpub,702 W Colorado Ave,Colorado Springs,Colorado,80905,http://www.cerberusbrewingco.com,719-636-2337,-104.8374071,38.8330574
40,Cerebral Brewing,micro,1477 Monroe St,Denver,Colorado,80206,http://www.cerebralbrewing.com,303-927-7365,-104.9451783,39.73968253
41,Chain Reaction Brewing Company,micro,902 S Lipan St,Denver,Colorado,80223,http://www.chainreactionbrewingco.com,303-922-0960,-105.001629,39.69879376
42,City Star Brewing,micro,321 Mountain Avenue,Berthoud,Colorado,80513,http://www.citystarbrewing.com,970-532-7827,-105.0809465,40.30505214
43,Cogstone Brewing Co,brewpub,3858 Village Seven Rd,Colorado Springs,Colorado,80917,http://www.cogstonebrewing.com,719-418-6595,-104.75566,38.87959595
44,Colorado Boy Pizzeria,brewpub,320 E Main St,Montrose,Colorado,81401,http://www.coloradoboy.com,970-240-2790,-107.877366,38.47887872
45,Colorado Boy Pub & Brewery,brewpub,602 Clinton St.,Ridgway,Colorado,81432,http://www.coloradoboy.com,970-626-5333,-107.7577685,38.152358
46,Colorado Farm Brewery,micro,2070 County Road 12 S,Alamosa,Colorado,81101,http://www.cofarmbeer.com,719-580-0051,-105.9855918,37.40026048
47,Colorado Mountain Brewery,micro,1110 Interquest Pkwy,Colorado Springs,Colorado,80921,http://www.cmbrew.com,719-271-7951,-104.8083989,38.99103716
48,Colorado Plus,brewpub,6995 W 38th Ave,Wheat Ridge,Colorado,80033,http://coloradoplus.net,303-877-5957,-105.0916384,39.7693524
49,CooperSmiths Pub and Brewing,brewpub,5 Old Town Sq,Fort Collins,Colorado,80524,http://www.coopersmithspub.com,970-498-0483,-105.0755188,40.5873784
50,Copper Club Brewing Co,micro,233 E Aspen Ave,Fruita,Colorado,81521,http://www.copperclubbrew.com,970-858-8318,-108.7314921,39.1591638
51,Crabtree Brewing,micro,2961 W 29th St,Greeley,Colorado,80631,http://www.crabtreebrewing.com,970-356-0516,-104.7875038,40.3899004
52,Crazy Mountain Brewing Co,regional,471 Kalamath St,Denver,Colorado,80204,http://www.crazymountainbrewery.com,970-926-3009,-105.0002926,39.72361171
53,Crow Hop Brewing Co. Ltd.,micro,214 E 4th St,Loveland,Colorado,80537,http://www.crowhopbrewing.com,970-633-0643,-105.0735144,40.39536486
54,Crystal Springs Brewing Co,micro,657 S Taylor Ave,Louisville,Colorado,80027,http://www.crystalspringsbrewing.com,303-884-5602,-105.119781,39.964883
55,Declaration Brewing Company,micro,2030 S Cherokee St,Denver,Colorado,80223,http://www.declarationbrewing.com,303-955-7410,-104.9910056,39.67973155
56,Denver Beer Co,micro,1695 Platte St,Denver,Colorado,80202,http://www.denverbeerco.com,303-433-2739,-105.0072502,39.7583143
57,DeSteeg Brewing Co/Blind Faith Brewing,micro,4342 Tennyson St,Denver,Colorado,80212,http://www.desteegbrewing.com,303-484-9698,-105.0438193,39.7760619
58,Diebolt Brewing,micro,3855 Mariposa St,Denver,Colorado,80211,http://www.dieboltbrewing.com,720-643-5940,-105.0032079,39.770332
59,Dillon Dam Brewery,brewpub,100 Little Dam Street,Dillon,Colorado,80435,http://www.dambrewery.com,970-262-7777,-106.0603129,39.62760465
60,Dolores River Brewery,brewpub,100 S. 4th St.,Dolores,Colorado,81323,http://www.doloresriverbrewery.com,970-882-4677,-108.504562,37.47323
61,Dos Luces Brewery,contract,1236 S Broadway,Denver,Colorado,80210,http://www.dosluces.com,303-725-4527,-104.9874923,39.6830067
62,Dostal Alley Brewing Co,brewpub,116 Main St,Central City,Colorado,80427,http://www.dostalalley.net,303-582-1610,-105.512426,39.8001431
63,Dry Dock Brewing Co - North Dock,regional,2801 Tower Rd,Aurora,Colorado,80011,http://www.drydockbrewing.com,303-400-5606,-104.772404,39.758038
64,Dry Dock Brewing Co- South Dock,micro,15120 E Hampden Ave,Aurora,Colorado,80014,http://www.drydockbrewing.com,303-400-5606,-104.7680096,39.6529424
65,Dueces Wild Brewery,micro,660 Peterson Rd,Colorado Springs,Colorado,80915,http://www.dwbbrewery.com,607-972-9260,-104.7034318,38.8877651
66,Durango Brewing Co,brewpub,3000 Main Ave,Durango,Colorado,81301,http://www.durangobrewing.com,970-247-3396,-107.871981,37.297647
67,Eddyline Brewing LLC,micro,102 Linderman Ave,Buena Vista,Colorado,81211,http://eddylinebrewery.com,719-966-6018,-106.131606,38.84025
68,Edgewater Brewery,brewpub,905 Struthers Ave,Grand Junction,Colorado,81501,http://www.kannahcreekbrewingco.com/edgewater-brewery,970-243-3659,-108.5575144,39.05565588
69,Endo Brewing Company,micro,2755 Dagny Way Ste 101,Lafayette,Colorado,80026,http://endobrewing.com,720-442-8052,-105.1341065,40.0144311
70,"Epic Brewing Co., LLC",micro,3001 Walnut St,Denver,Colorado,80205,http://www.epicbrewing.com,720-539-7410,-104.9813405,39.7632294
71,Equinox Brewing,micro,133 Remington St,Fort Collins,Colorado,80524,http://www.equinoxbrewing.com,970-484-1368,-105.0757134,40.5863266
72,Estes Park Brewery,micro,470 Prospect Village Dr,Estes Park,Colorado,80517,http://www.epbrewery.net,970-586-5421,-105.5261317,40.3714876
73,Factotum Brewhouse,micro,3845 Lipan St,Denver,Colorado,80211,http://www.factotumbrewhouse.com,720-441-4735,-105.0020653,39.7702043
74,Fermaentra,micro,1715 E Evans Ave,Denver,Colorado,80210,http://www.fermaentra.com,303-955-0736,-104.9428631,39.6784277
75,Fiction Beer Company,micro,7101 E Colfax Ave,Denver,Colorado,80220,http://www.fictionbeer.com,720-456-7163,-104.8854207,39.7402188
76,Floodstage Ale Works,brewpub,170 S Main St,Brighton,Colorado,80601,http://www.floodstagealeworks.com,303-654-7972,-104.8221009,39.98456564
77,Florence Brewing Company,micro,200 S Pikes Peak Ave,Florence,Colorado,81226,http://www.florencebrewing.com,719-784-7441,-105.1177755,38.3899222
78,Glenwood Canyon Brewing Co,brewpub,402 7th St,Glenwood Springs,Colorado,81601,http://www.glenwoodcanyon.com,970-945-1276,-107.323424,39.5476563
79,Golden Block Brewery,brewpub,1227 Greene St,Silverton,Colorado,81433,http://www.goldenblockbrewery.com,970-387-5962,-107.6642307,37.81194434
80,Goldspot Brewing Co,micro,4970 Lowell Blvd,Denver,Colorado,80221,http://www.goldspotbrewing.com,303-955-5657,-105.0343545,39.7868924
81,Good River Beer Company,contract,1790 S Bannock St.,Denver,Colorado,80223,http://www.grbeerco.com,602-369-7442,-104.9898169,39.68421218
82,Gore Range Brewery,brewpub,105 Edwards Village Blvd,Edwards,Colorado,81632,http://www.gorerangebrewery.com,970-926-2739,-106.5953228,39.64367461
83,Grand Adventure Brewing Company,brewpub,207 Central Ave,Kremmling,Colorado,80459,http://www.grandadventure.us,970-724-9219,-106.3925656,40.0599844
84,"Grand Lake Brewing Co, The",brewpub,5610 Yukon St,Arvada,Colorado,80002,http://www.grandlakebrewing.com,303-908-1677,-105.082456,39.79927412
85,Grandma's House,micro,1710 S Broadway,Denver,Colorado,80210,http://www.grandmasbeer.com,303-578-6754,-104.9872737,39.74350567
86,Great Divide Brewing Co,regional,2201 Arapahoe St,Denver,Colorado,80205,http://www.greatdivide.com,303-296-9460,-104.9885279,39.7539229
87,Great Divide Brewing Co - RiNo Barrel Bar,micro,1812 35th St,Denver,Colorado,80216,http://greatdivide.com/,303-296-9460,-104.979247,39.7703322
88,Great Frontier Brewing Company,micro,2010 S Oak St,Lakewood,Colorado,80227,http://www.greatfrontierbeer.com,720-328-1758,-105.1177216,39.6813614
89,"Guanella Pass Brewing Company, LLC",micro,501 Rose Street,Georgetown,Colorado,80444,http://www.guanellapass.com,303-569-5167,-105.697303,39.705772
90,High Alpine Brewing Company,brewpub,111 N Main St,Gunnison,Colorado,81230,http://www.highalpinebrewing.com,970-642-4500,-106.9270377,38.54462278
91,High Hops Brewery,micro,6461 State Highway 392,Windsor,Colorado,80550,http://www.highhopsbrewery.com,970-674-2841,-104.9357557,40.4799901
92,HighSide Brewery,micro,720 Main St,Frisco,Colorado,80443,http://www.highsidebrewing.com,970-668-2337,-106.0935416,39.57663329
93,Hogshead Brewery,micro,4460 W 29th Ave,Denver,Colorado,80212,http://www.hogsheadbrewery.com,303-886-9655,-105.04506,39.758232
94,Horsefly Brewing Co,brewpub,846 E Main St,Montrose,Colorado,81401,http://www.horseflybrewing.com,970-249-6889,-107.871306,38.48272365
95,Iron Bird Brewing Co.,brewpub,402 S Nevada Ave,Colorado Springs,Colorado,80903,http://www.ironbirdbrewing.com,719-424-7002,-104.8223799,38.8280292
96,Irwin Brewing Company,micro,326 Belleview,Crested Butte,Colorado,81224,http://www.irwinbrewingco.com,970-275-7578,-106.9853012,38.86695573
97,J. Fargo's Family Dining & Micro Brewery / Coyote J Brewing Co,brewpub,1209 E Main St,Cortez,Colorado,81321,http://www.jfargos.com,970-564-0242,-108.570199,37.348775
98,J Moe's Brewing Company,brewpub,7314 Washington St,Denver,Colorado,80229,http://www.creedebeer.com,303-287-4824,-104.9791943,39.7800007
99,Jagged Mountain Brewery,micro,1139 20th St,Denver,Colorado,80202,http://www.jaggedmountainbrewery.com,720-689-2337,-104.9913673,39.7522457
100,Jessup Farm Barrel House,micro,1921 Jessup Dr,Fort Collins,Colorado,80525,http://jessupfarm.com/barrel-house/,970-568-8345,-105.0380013,40.5620458
101,Joyride Brewing Co,micro,2501 Sheridan Blvd,Edgewater,Colorado,80214,http://joyridebrewing.com,720-432-7560,-105.053492,39.7531231
102,Kannah Creek Brewing Co,brewpub,1960 N 12th St,Grand Junction,Colorado,81501,http://www.kannahcreekbrewingco.com,970-263-0111,-108.5522615,39.08513947
103,Kokopelli Beer Company,brewpub,8931 Harlan St,Westminster,Colorado,80031,http://www.kokopellibeer.com,720-840-6835,-105.0640386,39.8590102
104,Lady Justice Brewing Company,micro,4375 Eaton St,Denver,Colorado,80212,http://www.ladyjusticebrewing.com,,-105.0593393,39.7909855
105,Lake City Brewing Company,brewpub,130 Bluff St,Lake City,Colorado,81235,http://www.lcbrewco.com,970-944-5222,-107.3191335,38.02729486
106,Lariat Lodge Brewing,brewpub,27618 Fireweed Dr,Evergreen,Colorado,80439,http://www.LariatLodgeBrewing.com,303-674-1842,-105.3136925,39.63935145
107,Launch Pad Brewery,micro,884 S Buckley Rd,Aurora,Colorado,80017,http://www.launchpadbrewery.com,720-878-2627,-104.7911253,39.6853036
108,Left Hand Brewing Company,regional,1265 Boston Ave,Longmont,Colorado,80501,http://www.lefthandbrewing.com,303-772-0258,-105.1168403,40.158688
109,Little Machine,micro,2924 W 20th Ave,Denver,Colorado,80211,http://www.littlemachinebeer.com,303-284-7893,-105.0243557,39.7474051
110,Local Relic,brewpub,320 S Weber St,Colorado Springs,Colorado,80903,http://www.localrelic.com,719-270-0077,-104.8203866,38.82871975
111,Lone Tree Brewing Co,micro,8222 Park Meadows Dr,Lone Tree,Colorado,80124,http://www.lonetreebrewingco.com,303-792-5822,-104.8942075,39.56298697
112,Lost Friend Brewing Company,micro,2458 Montebello Square Dr,Colorado Springs,Colorado,80918,http://www.lostfriendbrewing.com,,-104.7823626,38.9082661
113,Loveland Aleworks,micro,118 W 4th St,Loveland,Colorado,80537,http://www.lovelandaleworks.com,970-405-7465,-105.0769672,40.39541012
114,Lumpy Ridge Brewing Co,micro,531 S St Vrain Ave,Estes Park,Colorado,80517,http://www.lumpyridgebrewing.com,970-235-1752,-105.503658,40.367158
115,Mad Jack's Mountain Brewery,micro,23 Main St,Bailey,Colorado,80421,http://www.madjacksmountainbrewery.com,303-816-2337,-105.4774352,39.40651269
116,Manitou Brewing Company,brewpub,725 Manitou Ave,Manitou Springs,Colorado,80829,http://www.manitou-brewing.com,719-282-7709,-104.9157413,38.8569869
117,Mash Lab Brewing,micro,4395 Highland Meadows Pkwy,Windsor,Colorado,80550,http://www.mashlabbrewing.com,970-262-9225,-104.9677936,40.4386998
118,Maxline Brewing,micro,2724 McClelland Dr Ste 190,Fort Collins,Colorado,80525,http://www.maxlinebrewing.com,970-286-2855,-105.0797489,40.55059012
119,McClellan's Brewing Company,brewpub,1035 S Taft Hill Rd,Fort Collins,Colorado,80521,http://www.mcclellansbrewingcompany.com,970-568-8473,-105.1151806,40.5737952
120,Mockery Brewing,micro,3501 Delgany St,Denver,Colorado,80216,http://Mockerybrewing.com,303-953-2058,-104.9797349,39.7712389
121,Moonlight Pizza,brewpub,242 F St,Salida,Colorado,81201,http://www.moonlightpizza.biz,719-539-4277,-105.9931616,38.53502271
122,Mother Tucker Brewery,micro,2360 E 120th Ave,Thornton,Colorado,80233,http://mothertuckerbrewery.com,303-565-9459,-104.9582581,39.91402476
123,Mountain Cowboy Brewing Company,brewpub,318 5th St,Frederick,Colorado,80530,http://www.mountaincowboybrewing.com,303-952-4433,-104.9369796,40.09855473
124,Mountain Sun Pub and Brewery,brewpub,1535 Pearl St,Boulder,Colorado,80302,http://www.mountainsunpub.com,303-546-0886,-105.2752277,40.0190131
125,Mountain Tap Brewery,brewpub,910 Yampa Street,Steamboat Springs,Colorado,80487,http://www.mountaintapbrewery.com,970-879-6646,-106.8355071,40.4853039
126,Mountain Toad Brewing,micro,900 Washington Ave,Golden,Colorado,80401,http://mountaintoadbrewing.com,720-638-3244,-105.2242563,39.75807905
127,New Belgium Brewing Co,regional,500 Linden St,Fort Collins,Colorado,80524,http://www.newbelgium.com,970-221-0524,-105.0678422,40.59335825
128,New Image Brewing Co,brewpub,5622 Yukon St,Arvada,Colorado,80002,http://www.nibrewing.com,770-881-1010,-105.0824595,39.79938347
129,New Terrain Brewing Company,micro,16401 Table Mountain Pkwy,Golden,Colorado,80403,http://newterrainbrewing.com,720-697-7848,-105.1851036,39.77781975
130,Odd13 Brewing Inc,micro,301 E Simpson St,Lafayette,Colorado,80026,http://www.odd13brewing.com,303-997-4164,-105.0878839,39.9983626
131,Odell Brewing Co,regional,800 E Lincoln Ave,Fort Collins,Colorado,80524,http://www.odellbrewing.com,970-498-9070,-105.0633327,40.5895239
132,Oskar Blues Brewery - Lyons,brewpub,303 Main St,Lyons,Colorado,80540,http://www.oskarblues.com,303-823-6685,-105.2676934,40.22451332
133,Our Mutual Friend Brewing,micro,2810 Larimer St,Denver,Colorado,80205,http://www.omfbeer.com,303-296-3441,-104.9825596,39.7605777
134,Ouray Brewery,brewpub,607 Main St,Ouray,Colorado,81427,http://www.ouraybrewery.com,970-325-7388,-107.6712878,38.0229071
135,Outer Range Brewing Co,micro,182 Lusher Court #2,Frisco,Colorado,80443,http://www.outerrange.com,970-368-3101,-106.0989298,39.5892615
136,Palisade Brewing Company,brewpub,200 Peach Ave,Palisade,Colorado,81526,http://www.palisadebrewingcompany.com,970-464-1462,-108.3542553,39.11109565
137,Paonia United Brewing Company,micro,325 Grand Ave,Paonia,Colorado,81428,http://www.paoniaunitedbrew.com,970-417-7759,-107.5976969,38.86899455
138,Paradox Beer Co,micro,10 Buffalo Ct,Divide,Colorado,80814,http://www.paradoxbeercompany.com,,-105.1550486,38.94440915
139,Pdub Brewing Co,brewpub,187 S Purcell Blvd,Pueblo,Colorado,81007,http://www.pdubbrewing.com,719-647-8864,-104.7084175,38.3164023
140,Peak To Peak Tap & Brew,brewpub,16701 E Iliff Ave,Aurora,Colorado,80013,http://www.peakbrews.com,720-446-8714,-104.8366181,39.6750535
141,Peaks N Pines Brewing Company,micro,4005 Tutt Blvd,Colorado Springs,Colorado,80922,http://www.peaksnpinesbrewery.com,719-358-6758,-104.7146045,38.88965993
142,Periodic Brewing LLC,brewpub,115 E 7th St,Leadville,Colorado,80461,http://www.periodicbrewing.com,720-316-8144,-106.2917767,39.2496419
143,Phantom Canyon Brewing Co,brewpub,2 E Pikes Peak Ave,Colorado Springs,Colorado,80903,http://www.phantomcanyon.com,719-635-2800,-104.8249314,38.83423935
144,Pilothouse Brewing Company,micro,4233 S Buckley Rd,Aurora,Colorado,80013,http://www.pilothousebrewco.com,303-994-4971,-104.7915508,39.63993222
145,Pints Pub Brewery and Freehouse,brewpub,221 W 13th Ave,Denver,Colorado,80204,http://www.pintspub.com,303-534-7543,-104.9908538,39.737018
146,Pitchers Sports Restaurant and Brewery,brewpub,1100 W Drake Rd,Fort Collins,Colorado,80526,http://www.pitchersbrewery.com,970-493-5374,-105.0973959,40.55306785
147,Platt Park Brewing Co.,micro,1875 S Pearl St,Denver,Colorado,80210,http://www.plattparkbrewing.com,303-968-6674,-104.9805967,39.68267416
148,Prost Brewing,micro,2540 19th St,Denver,Colorado,80211,http://www.prostbrewing.com,303-729-1175,-105.0067758,39.761363
149,Pug Ryan's Brewing Company,brewpub,104 Village Pl,Dillon,Colorado,80435,http://www.pugryans.com,970-468-2145,-106.0467598,39.62832675
150,Pumphouse Brewery and Restaurant,brewpub,540 Main St,Longmont,Colorado,80501,http://www.pumphousebrewery.com,303-702-0881,-105.1020999,40.1687619
151,Rails End Beer Company,micro,11625 Reed Ct,Broomfield,Colorado,80020,http://www.railsendbeerco.com,303-353-8121,-105.0750302,39.9084879
152,Ratio Beerworks,micro,2920 Larimer St,Denver,Colorado,80205,http://ratiobeerworks.com,310-266-9264,-104.9812181,39.7615104
153,Red Mountain Brewing,brewpub,400 Main St,Ouray,Colorado,81427,http://www.redmountainbrewingouray.com,970-325-9858,-107.671615,38.020713
154,Redgarden Brewery,brewpub,1700 Dogwood St,Louisville,Colorado,80027,http://www.redgardenbrewery.com,303-619-9601,-105.1138827,39.9674475
155,Renegade Brewing Company,micro,918 W 1st Ave,Denver,Colorado,80223,http://renegadebrewing.com,303-534-5407,-104.9992637,39.71831392
156,Renegade Brewing Company - Production,micro,918 W 1st Ave,Denver,Colorado,80223,http://www.renegadebrewing.com,720-401-4089,-104.9992637,39.71831392
157,Riff Raff Brewing,brewpub,274 Pagosa St,Pagosa Springs,Colorado,81147,http://www.riffraffbrewing.com,970-264-4677,-107.0081546,37.26874006
158,Rock Bottom Brewery - Centerra Promenade,brewpub,6025 Sky Pond Dr,Loveland,Colorado,80538,http://www.rockbottom.com,970-622-2077,-104.990385,40.418114
159,Rock Bottom Brewery - Colorado Springs,brewpub,3316 Cinema Point Dr,Colorado Springs,Colorado,80922,http://www.rockbottom.com,719-550-3586,-104.718194,38.8811909
160,Rockslide Brewing Co,brewpub,401 Main St,Grand Junction,Colorado,81501,http://www.rockslidebrewpub.com,970-241-9311,-108.5659153,39.0670106
161,"Rocky Mountain Taphouse, LLC",micro,3050 67th Ave Ste 104,Greeley,Colorado,80634,http://www.rockymountaintaphouse.com,970-302-6551,-104.7859342,40.387892
162,Rockyard Brewing Company,brewpub,880 Castleton Rd,Castle Rock,Colorado,80109,http://www.rockyard.com,303-814-9273,-104.8723394,39.4096188
163,Royal Gorge Brew Pub,brewpub,413 Main St,Canon City,Colorado,81212,http://www.royalgorgebrewing.com,719-345-4141,-105.2418113,38.44010539
164,Saint Patrick's Brewing Company,micro,2842 W Bowles Ave,Littleton,Colorado,80120,http://www.stpatricksbrewco.com,303-718-7575,-105.024584,39.6125875
165,San Luis Valley Brewing Co,brewpub,631 Main St,Alamosa,Colorado,81101,http://www.slvbrewco.com,719-587-2337,-105.8742898,37.4681813
166,Seedstock Brewery,micro,3610 W Colfax Ave,Denver,Colorado,80204,http://www.seedstockbrewery.com,720-476-7831,-105.0348519,39.74025203
167,Shamrock Brewing Company,brewpub,108 W 3rd St,Pueblo,Colorado,81003,http://www.shamrockbrewing.com,719-542-9974,-104.6078644,38.26965302
168,Sleeping Giant Brewing Company,micro,2500 W 5th Ave,Denver,Colorado,80204,http://www.sleepinggiantbrewing.com,,-105.0167729,39.7237975
169,Smuggler's Brewpub,brewpub,225 South Pine St,Telluride,Colorado,81435,http://www.smugglersbrewpub.com,970-728-5620,-107.8114274,37.9358018
170,Spangalang Brewery,micro,2736 Welton St Ste 102,Denver,Colorado,80205,http://www.spangalangbrewery.com,303-297-1276,-104.9770361,39.7552227
171,Spice Trade Brewing,brewpub,7803 Ralston Rd,Arvada,Colorado,80002,http://www.spicetradebrewing.com,303-431-9000,-105.0841731,39.802334
172,Square Peg Brewerks,micro,625 Main St,Alamosa,Colorado,81101,http://www.squarepegbrewerks.com,719-580-7472,-105.8742898,37.4681813
173,Station 26 Brewing Co,micro,7045 E 38th Ave,Denver,Colorado,80207,http://www.station26brewing.co,,-104.9062608,39.76935335
174,Steamworks Brewing Co,brewpub,801 E 2nd Ave,Durango,Colorado,81301,http://www.steamworksbrewing.com,970-259-9200,-107.87979,37.272176
175,Stein Brewing Company,micro,2516 49th St,Boulder,Colorado,80301,http://www.jwellsbrewery.com,303-396-0384,-105.2378323,40.0238083
176,Suds Brothers Brewing Co #2,brewpub,127 E Aspen Ave,Fruita,Colorado,81521,http://www.sudsbrothers2fruita.com,970-858-1571,-108.7326881,39.1591622
177,The Bakers' Brewery,brewpub,531 Silverthorne Ln,Silverthorne,Colorado,80498,http://www.thebakersbrewery.com,970-468-0170,-106.0672002,39.62976193
178,The Brew On Broadway (The BoB),micro,3445 S Broadway,Englewood,Colorado,80113,http://www.thebrewonbroadway.com,303-781-5665,-104.98772,39.65416792
179,The Grateful Gnome Sandwich Shoppe and Brewery,brewpub,4369 Stuart St,Denver,Colorado,80212,http://www.thegratefulgnome.com,720-598-6863,-105.0432655,39.7764426
180,The Intrepid Sojourner Beer Project,micro,925 W 8th Ave,Denver,Colorado,80204,http://sojournerbeers.com,812-249-8792,-104.9993865,39.7291386
181,The Larimer Beer Company,contract,3620 Newport St,Denver,Colorado,80207,http://www.thelarimer.com,720-507-6369,-104.9093487,39.76773768
182,The Post Brewing Co,brewpub,2027 13th St,Boulder,Colorado,80302,http://www.postbrewing.com,720-372-3341,-105.2788942,40.01847649
183,The Post Brewing Co,brewpub,105 W Emma St,Lafayette,Colorado,80026,http://www.postbrewing.com,303-593-2066,-105.0913165,39.99461105
184,The Sandlot Brewery At Coors Field,large,2145 Blake St,Denver,Colorado,80205,http://www.millercoors.com,303-298-1587,-104.9926484,39.75571836
185,Three Barrel Brewing Co,brewpub,475 Grand Ave,del Norte,Colorado,81132,http://www.threebarrelbrew.com,719-657-0681,-106.3567109,37.6790756
186,Three Four Beer Company,brewpub,829 S Shields St,Fort Collins,Colorado,80521,http://www.threefourbeerco.com,970-682-1560,-105.0959634,40.5726176
187,Tilted Barrel Brew Pub,contract,110 E 29th St,Loveland,Colorado,80538,http://www.tiltedbarrelbrewpub.com,970-619-8950,-105.0773167,40.42158016
188,Tommyknocker Brewery & Pub,micro,1401 Miner St,Idaho Springs,Colorado,80452,http://www.tommyknocker.com,303-567-4419,-105.5176775,39.7417505
189,Tumbleweed Brewing and Wine Company,brewpub,124 S Main St,Yuma,Colorado,80759,http://www.tumbleweedbrewing.com,970-630-2818,-102.7238865,40.12462759
190,Two Rascals Brewing Co,micro,147 N 1st St,Montrose,Colorado,81401,http://www.tworascalsbrewing.com,970-249-8689,-107.8800003,38.4788199
191,Two22 Brew,micro,4550 S Reservoir Rd,Centennial,Colorado,80015,http://www.two22brew.com,720-328-9038,-104.7601698,39.63429093
192,Upslope Brewing Company - Flatiron Park,micro,1898 S Flatiron Ct Ste 110,Boulder,Colorado,80301,http://www.upslopebrewing.com,,-105.2183136,40.0203098
193,Ute Pass Brewing Co,brewpub,209 E Midland Ave,Woodland Park,Colorado,80863,http://www.utepassbrewingcompany.com,719-686-8722,-105.0513357,38.9944899
194,Uturn BBQ,brewpub,599 Crossing Dr,Lafayette,Colorado,80026,http://www.uturnbbq.com,303-993-6033,-105.1016163,40.0035307
195,Verboten Brewing,micro,127 E 5th St,Loveland,Colorado,80537,http://www.verbotenbrewing.com,970-775-7371,-105.0749674,40.39658612
196,Veteran Brothers Brewing Company,brewpub,21 N Parish Ave,Johnstown,Colorado,80534,https://www.facebook.com/veteranbrothersbrew,970-587-6786,-104.9061919,40.33713
197,Vine Street Pub & Brewery,brewpub,1700 Vine St,Denver,Colorado,80206,http://www.mountainsunpub.com,303-388-2337,-104.9627421,39.7434087
198,Walter Brewing Company,micro,126 Oneida St,Pueblo,Colorado,81003,http://www.waltersbeer.com,719-542-0766,-104.6103677,38.26241645
199,WeldWerks Brewing Co.,micro,508 8th Ave,Greeley,Colorado,80631,http://www.weldwerksbrewing.com,970-518-5226,-104.6911497,40.3998251
200,West Flanders Brewing Co,brewpub,1125 Pearl St,Boulder,Colorado,80302,http://www.wfbrews.com,303-447-2739,-105.260866,40.0217453
201,Westbound & Down Brewing Company,brewpub,1617 Miner St,Idaho Springs,Colorado,80452,http://www.westboundanddown.com,720-502-3121,-105.5155002,39.7419049
202,WestFax Brewing Co.,micro,6733 W Colfax Ave,Lakewood,Colorado,80214,http://www.westfaxbrewingcompany.com,303-233-3742,-105.0710839,39.7415749
203,Whistle Pig Brewing Company,micro,1840 Dominion Way,Colorado Springs,Colorado,80918,http://www.whistlepigbrewing.com,719-598-1339,-104.7931723,38.92372675
204,Wibby Brewing,micro,209 Emery St,Longmont,Colorado,80501,http://www.wibbybrewing.com,,-105.1002098,40.1623965
205,Wild Woods Brewery,micro,5460 Conestoga Ct,Boulder,Colorado,80301,http://www.wildwoodsbrewery.com,303-484-1465,-105.2258104,40.0162153
206,WildEdge Brewing Collective,brewpub,111 N Market St,Cortez,Colorado,81321,http://www.wildedgebrewing.com,970-565-9445,-108.5853117,37.34990058
207,Wonderland Brewing Co.,micro,5450 W 120th Ave,Broomfield,Colorado,80020,http://www.wonderlandbrewing.com,303-953-0400,-105.0560819,39.91349895
208,Woods Boss Brewing Company,micro,2210 California St,Denver,Colorado,80205,http://www.woodsbossbrew.com,914-960-9225,-104.9845374,39.7509153
209,Wynkoop Brewing Co,brewpub,1634 18th St,Denver,Colorado,80202,http://www.wynkoop.com,303-297-2700,-104.9984831,39.7535446
210,Zuni Street Brewing Company,micro,2355 W 29th Ave,Denver,Colorado,80211,http://www.zunistreetbrewing.com,303-862-6525,-105.015409,39.7585929
